NORAD_CAT_ID,OBJECT_NAME,OBJECT_TYPE,EPOCH,MEAN_MOTION,ECCENTRICITY,INCLINATION,RA_OF_ASC_NODE,ARG_OF_PERICENTER,MEAN_ANOMALY,BSTAR,MEAN_MOTION_DOT,MEAN_MOTION_DDOT,TLE_LINE0,TLE_LINE1,TLE_LINE2,SEMIMAJOR_AXIS,PERIOD,APOGEE,PERIGEE,DECAYED
49148.0,STARLINK-3048,PAYLOAD,2021-09-28 14:00:01,15.69841977,0.0003634,70.0018,86.2113,274.4213,68.3346,-0.00069911,-0.00083171,0.0,0 STARLINK-3048,1 49148U 21082U   21271.58334491 -.00083171  00000-0 -69911-3 0  9990,2 49148  70.0018  86.2113 0003634 274.4213  68.3346 15.69841977  2609,6737.486,91.729,361.8,356.903,0.0
49148.0,STARLINK-3048,PAYLOAD,2021-09-28 20:00:01,15.69758155,0.0003525,70.0022,85.5146,277.4852,37.73,0.00047699,0.0005713999999999,0.0,0 STARLINK-3048,1 49148U 21082U   21271.83335648  .00057140  00000-0  47699-3 0  9997,2 49148  70.0022  85.5146 0003525 277.4852  37.7300 15.69758155  3542,6737.726,91.734,361.966,357.216,0.0
49148.0,STARLINK-3048,PAYLOAD,2021-09-29 12:00:02,15.6986216,0.0003463,70.0025,83.6407,271.6426,209.9435,-0.00082566,-0.00098092,0.0,0 STARLINK-3048,1 49148U 21082U   21272.50002315 -.00098092  00000-0 -82566-3 0  9999,2 49148  70.0025  83.6407 0003463 271.6426 209.9435 15.69862160  3643,6737.428000000001,91.728,361.627,356.96,0.0
49148.0,STARLINK-3048,PAYLOAD,2021-09-29 14:00:01,15.69863514,0.0003523999999999,70.0025,83.4065,272.5636,319.7655,-0.0011713,-0.00138416,0.0,0 STARLINK-3048,1 49148U 21082U   21272.58334491 -.00138416  00000-0 -11713-2 0  9990,2 49148  70.0025  83.4065 0003524 272.5636 319.7655 15.69863514  2762,6737.424,91.728,361.664,356.915,0.0
49148.0,STARLINK-3048,PAYLOAD,2021-09-29 20:00:01,15.6971853,0.0003526,70.0024,82.7037,278.4041,286.3232,0.00015882,0.00018766,0.0,0 STARLINK-3048,1 49148U 21082U   21272.83334491  .00018766  00000-0  15882-3 0  9993,2 49148  70.0024  82.7037 0003526 278.4041 286.3232 15.69718530  3699,6737.839,91.736,362.08,357.329,0.0
49148.0,STARLINK-3048,PAYLOAD,2021-09-30 12:00:02,15.69767663,0.0003483,70.0024,80.8302,272.4526,98.6231,8.4176e-05,9.856e-05,0.0,0 STARLINK-3048,1 49148U 21082U   21273.50002315  .00009856  00000-0  84176-4 0  9998,2 49148  70.0024  80.8302 0003483 272.4526  98.6231 15.69767663  3804,6737.699000000001,91.733,361.91,357.217,0.0
49148.0,STARLINK-3048,PAYLOAD,2021-09-30 14:00:01,15.69785316,0.000351,70.0024,80.5959,273.698,208.0953,-0.00021058,-0.00025313,0.0,0 STARLINK-3048,1 49148U 21082U   21273.58334491 -.00025313  00000-0 -21058-3 0  9996,2 49148  70.0024  80.5959 0003510 273.6980 208.0953 15.69785316  2922,6737.648,91.732,361.878,357.148,0.0
49148.0,STARLINK-3048,PAYLOAD,2021-10-01 04:00:01,15.69743438,0.0003353,70.0017,78.956,277.1763,260.2029,-0.00033,-0.00039412,0.0,0 STARLINK-3048,1 49148U 21082U   21274.16668981 -.00039412  00000-0 -33000-3 0  9990,2 49148  70.0017  78.9560 0003353 277.1763 260.2029 15.69743438  3908,6737.768,91.735,361.892,357.374,0.0
49148.0,STARLINK-3048,PAYLOAD,2021-10-01 12:00:00,15.69759135,0.000335,70.002,78.0191,272.7848,347.6353,0.00012481,0.00014719,0.0,0 STARLINK-3048,1 49148U 21082U   21274.50001157  .00014719  00000-0  12481-3 0  9995,2 49148  70.0020  78.0191 0003350 272.7848 347.6353 15.69759135  3962,6737.723000000001,91.734,361.845,357.331,0.0
49148.0,STARLINK-3048,PAYLOAD,2021-10-01 14:00:01,15.6977753,0.0003395,70.002,77.7848,274.6354,96.5653,-0.00017676,-0.00021284,0.0,0 STARLINK-3048,1 49148U 21082U   21274.58334491 -.00021284  00000-0 -17676-3 0  9991,2 49148  70.0020  77.7848 0003395 274.6354  96.5653 15.69777530  3084,6737.670999999999,91.733,361.823,357.24800000000016,0.0
49148.0,STARLINK-3048,PAYLOAD,2021-10-01 22:00:00,15.69773997,0.0003449,70.0019,76.8477,280.783,173.5574,-0.00013609,-0.00016443,0.0,0 STARLINK-3048,1 49148U 21082U   21274.91667824 -.00016443  00000-0 -13609-3 0  9990,2 49148  70.0019  76.8477 0003449 280.7830 173.5574 15.69773997  3145,6737.681,91.733,361.869,357.222,0.0
49148.0,STARLINK-3048,PAYLOAD,2021-10-02 02:00:01,15.69808679,0.0003453,70.0017,76.3794,278.5554,37.3638,-0.00099585,-0.00117733,0.0,0 STARLINK-3048,1 49148U 21082U   21275.08334491 -.00117733  00000-0 -99585-3 0  9991,2 49148  70.0017  76.3794 0003453 278.5554  37.3638 15.69808679  4058,6737.581,91.731,361.773,357.12,0.0
49148.0,STARLINK-3048,PAYLOAD,2021-10-02 06:00:00,15.6970745,0.0003555,70.0019,75.9109,275.503,262.0166,0.00056127,0.00067214,0.0,0 STARLINK-3048,1 49148U 21082U   21275.25001157  .00067214  00000-0  56127-3 0  9991,2 49148  70.0019  75.9109 0003555 275.5030 262.0166 15.69707450  3196,6737.871,91.737,362.131,357.341,0.0
49148.0,STARLINK-3048,PAYLOAD,2021-10-02 12:00:02,15.69763408,0.0003525,70.0021,75.2086,274.1683,235.733,0.00014137,0.00016708,0.0,0 STARLINK-3048,1 49148U 21082U   21275.50002315  .00016708  00000-0  14137-3 0  9993,2 49148  70.0021  75.2086 0003525 274.1683 235.7330 15.69763408  4110,6737.7109999999975,91.734,361.951,357.201,0.0
49148.0,STARLINK-3048,PAYLOAD,2021-10-02 20:00:01,15.69893634,0.0003621,70.0014,74.2684,277.8157,315.2154,-0.0030812,-0.00355063,0.0,0 STARLINK-3048,1 49148U 21082U   21275.83335648 -.00355063  00000-0 -30812-2 0  9996,2 49148  70.0014  74.2684 0003621 277.8157 315.2154 15.69893634  4166,6737.3380000000025,91.726,361.643,356.764,0.0
49148.0,STARLINK-3048,PAYLOAD,2021-10-02 22:00:00,15.70016817,0.0003865,70.0007,74.0331,280.3393,63.3954,-0.0069191,-0.00763578,0.0,0 STARLINK-3048,1 49148U 21082U   21275.91667824 -.00763578  00000-0 -69191-2 0  9995,2 49148  70.0007  74.0331 0003865 280.3393  63.3954 15.70016817  3302,6736.986,91.719,361.455,356.247,0.0
49148.0,STARLINK-3048,PAYLOAD,2021-10-03 04:00:00,15.69176197,0.0003328,70.0005,73.3278,277.6374,38.5833,0.0060783,0.00778496,0.0,0 STARLINK-3048,1 49148U 21082U   21276.16667824  .00778496  00000-0  60783-2 0  9994,2 49148  70.0005  73.3278 0003328 277.6374  38.5833 15.69176197  4222,6739.392,91.768,363.5,359.014,0.0
49148.0,STARLINK-3048,PAYLOAD,2021-10-03 12:00:00,15.69749655,0.0003551,70.0001,72.3887,269.6075,129.3446,-4.0404e-05,-5.033e-05,0.0,0 STARLINK-3048,1 49148U 21082U   21276.50001157 -.00005033  00000-0 -40404-4 0  9995,2 49148  70.0001  72.3887 0003551 269.6075 129.3446 15.69749655  4279,6737.75,91.734,362.008,357.223,0.0
49148.0,STARLINK-3048,PAYLOAD,2021-10-03 14:00:01,15.69748778,0.0003545,70.0001,72.1544,271.8527,237.8813,-2.718e-05,-3.456e-05,0.0,0 STARLINK-3048,1 49148U 21082U   21276.58334491 -.00003456  00000-0 -27180-4 0  9996,2 49148  70.0001  72.1544 0003545 271.8527 237.8813 15.69748778  3409,6737.753000000002,91.734,362.006,357.22900000000016,0.0
49148.0,STARLINK-3048,PAYLOAD,2021-10-03 22:00:01,15.69745411,0.0003493,69.9998,71.2172,273.4562,319.4703,3.1443000000000004e-05,3.542e-05,0.0,0 STARLINK-3048,1 49148U 21082U   21276.91668981  .00003542  00000-0  31443-4 0  9998,2 49148  69.9998  71.2172 0003493 273.4562 319.4703 15.69745411  3469,6737.762,91.735,361.981,357.274,0.0
49148.0,STARLINK-3048,PAYLOAD,2021-10-04 04:00:01,15.69712692,0.0003644,70.0017,70.5234,278.4982,286.9952,-5.5372e-05,-6.807e-05,0.0,0 STARLINK-3048,1 49148U 21082U   21277.16668981 -.00006807  00000-0 -55372-4 0  9992,2 49148  70.0017  70.5234 0003644 278.4982 286.9952 15.69712692  4374,6737.856,91.737,362.176,357.266,0.0
49148.0,STARLINK-3048,PAYLOAD,2021-10-04 12:00:00,15.69746601,0.0003705,70.0021,69.5868,275.9127,12.5871,-5.4497e-05,-6.712e-05,0.0,0 STARLINK-3048,1 49148U 21082U   21277.50001157 -.00006712  00000-0 -54497-4 0  9998,2 49148  70.0021  69.5868 0003705 275.9127  12.5871 15.69746601  4438,6737.759,91.735,362.12,357.12800000000016,0.0
49148.0,STARLINK-3048,PAYLOAD,2021-10-04 14:00:01,15.69756654,0.0003748,70.002,69.3527,277.5342,121.7432,-0.00026081,-0.00031243,0.0,0 STARLINK-3048,1 49148U 21082U   21277.58334491 -.00031243  00000-0 -26081-3 0  9990,2 49148  70.0020  69.3527 0003748 277.5342 121.7432 15.69756654  3569,6737.73,91.734,362.121,357.07,0.0
49148.0,STARLINK-3048,PAYLOAD,2021-10-04 22:00:00,15.69737347,0.0003796,70.0008,68.4137,282.3305,200.0706,0.00034059,0.00040626,0.0,0 STARLINK-3048,1 49148U 21082U   21277.91667824  .00040626  00000-0  34059-3 0  9993,2 49148  70.0008  68.4137 0003796 282.3305 200.0706 15.69737347  3628,6737.785,91.735,362.208,357.093,0.0
49148.0,STARLINK-3048,PAYLOAD,2021-10-05 04:00:00,15.69744345,0.0003782,70.0017,67.7128,277.5692,177.1814,0.00028955,0.00034491,0.0,0 STARLINK-3048,1 49148U 21082U   21278.16667824  .00034491  00000-0  28955-3 0  9992,2 49148  70.0017  67.7128 0003782 277.5692 177.1814 15.69744345  4531,6737.765,91.735,362.179,357.082,0.0
49148.0,STARLINK-3048,PAYLOAD,2021-10-05 14:00:01,15.69829172,0.0003761,70.0019,66.54,277.6512,11.0197,-0.00098341,-0.00116391,0.0,0 STARLINK-3048,1 49148U 21082U   21278.58334491 -.00116391  00000-0 -98341-3 0  9997,2 49148  70.0019  66.5400 0003761 277.6512  11.0197 15.69829172  3724,6737.523,91.73,361.922,356.85400000000016,0.0
49148.0,STARLINK-3048,PAYLOAD,2021-10-05 22:00:01,15.69860316,0.0003863,70.0005,65.5996,280.5475,91.3532,-0.0046123,-0.00520507,0.0,0 STARLINK-3048,1 49148U 21082U   21278.91668981 -.00520507  00000-0 -46123-2 0  9996,2 49148  70.0005  65.5996 0003863 280.5475  91.3532 15.69860316  3787,6737.434,91.728,361.901,356.696,0.0
49148.0,STARLINK-3048,PAYLOAD,2021-10-06 04:00:00,15.69723101,0.0003469,70.0023,64.9019,279.0415,65.1172,0.00033752,0.0004023,0.0,0 STARLINK-3048,1 49148U 21082U   21279.16667824  .00040230  00000-0  33752-3 0  9992,2 49148  70.0023  64.9019 0003469 279.0415  65.1172 15.69723101  4695,6737.826,91.736,362.029,357.35400000000016,0.0
49148.0,STARLINK-3048,PAYLOAD,2021-10-06 14:00:01,15.69781498,0.0003599,70.0026,63.7302,280.3035,257.8178,-0.00011344,-0.00013751,0.0,0 STARLINK-3048,1 49148U 21082U   21279.58335648 -.00013751  00000-0 -11344-3 0  9997,2 49148  70.0026  63.7302 0003599 280.3035 257.8178 15.69781498  3774,6737.659000000002,91.733,361.949,357.099,0.0
